{"type": "FeatureCollection", "features": [ {"type": "Feature", "properties": {"norad_id": 57401, "name": "TIANMU-1 09", "group": "weather", "lat": -48.52729122733439, "lon": -161.01163798212664, "alt_km": 491.50905829901603, "timestamp": "2025-12-03T22:42:32.302678+00:00", "meta": {"OBJECT_NAME": "TIANMU-1 09", "OBJECT_ID": "2023-101C", "EPOCH": "2025-12-03T12:16:45.881760", "MEAN_MOTION": 15.27863659, "ECCENTRICITY": 0.0006756, "INCLINATION": 97.2841, "RA_OF_ASC_NODE": 26.8845, "ARG_OF_PERICENTER": 108.9513, "MEAN_ANOMALY": 251.2459, "EPHEMERIS_TYPE": 0, "CLASSIFICATION_TYPE": "U", "NORAD_CAT_ID": 57401, "ELEMENT_SET_NO": 999, "REV_AT_EPOCH": 13174, "BSTAR": 0.0003922, "MEAN_MOTION_DOT": 0.00010608, "MEAN_MOTION_DDOT": 0}, "tle": {"line1": "1 57401U 23101C   25337.51164215  .00010608  00000+0  39220-3 0  9992", "line2": "2 57401  97.2841  26.8845 0006756 108.9513 251.2459 15.27863659131740"}}, "geometry": {"type": "Point", "coordinates": [-161.01163798212664, -48.52729122733439]}}, {"type": "Feature", "properties": {"norad_id": 57402, "name": "TIANMU-1 10", "group": "weather", "lat": 40.53723589604793, "lon": 21.862430329581827, "alt_km": 476.86025261487157, "timestamp": "2025-12-03T22:42:32.302687+00:00", "meta": {"OBJECT_NAME": "TIANMU-1 10", "OBJECT_ID": "2023-101D", "EPOCH": "2025-12-03T11:31:39.046656", "MEAN_MOTION": 15.27853418, "ECCENTRICITY": 0.0008492, "INCLINATION": 97.2921, "RA_OF_ASC_NODE": 27.6938, "ARG_OF_PERICENTER": 110.2317, "MEAN_ANOMALY": 249.9837, "EPHEMERIS_TYPE": 0, "CLASSIFICATION_TYPE": "U", "NORAD_CAT_ID": 57402, "ELEMENT_SET_NO": 999, "REV_AT_EPOCH": 13173, "BSTAR": 0.00039551, "MEAN_MOTION_DOT": 0.00010699, "MEAN_MOTION_DDOT": 0}, "tle": {"line1": "1 57402U 23101D   25337.48031304  .00010699  00000+0  39551-3 0  9998", "line2": "2 57402  97.2921  27.6938 0008492 110.2317 249.9837 15.27853418131734"}}, "geometry": {"type": "Point", "coordinates": [21.862430329581827, 40.53723589604793]}}, {"type": "Feature", "properties": {"norad_id": 57490, "name": "FENGYUN 3F", "group": "weather", "lat": 62.17359070981728, "lon": -116.73621020689606, "alt_km": 819.2101886836435, "timestamp": "2025-12-03T22:42:32.302696+00:00", "meta": {"OBJECT_NAME": "FENGYUN 3F", "OBJECT_ID": "2023-111A", "EPOCH": "2025-12-03T12:00:54.048384", "MEAN_MOTION": 14.19889569, "ECCENTRICITY": 6.93e-05, "INCLINATION": 98.7095, "RA_OF_ASC_NODE": 45.9427, "ARG_OF_PERICENTER": 86.4933, "MEAN_ANOMALY": 273.6323, "EPHEMERIS_TYPE": 0, "CLASSIFICATION_TYPE": "U", "NORAD_CAT_ID": 57490, "ELEMENT_SET_NO": 999, "REV_AT_EPOCH": 12109, "BSTAR": 9.4096e-05, "MEAN_MOTION_DOT": 1.56e-06, "MEAN_MOTION_DDOT": 0}, "tle": {"line1": "1 57490U 23111A   25337.50062556  .00000156  00000+0  94096-4 0  9995", "line2": "2 57490  98.7095  45.9427 0000693  86.4933 273.6323 14.19889569121096"}}, "geometry": {"type": "Point", "coordinates": [-116.73621020689606, 62.17359070981728]}}, {"type": "Feature", "properties": {"norad_id": 58584, "name": "ARKTIKA-M 2", "group": "weather", "lat": 50.22834231991019, "lon": -146.78687077690054, "alt_km": 28928.737213239187, "timestamp": "2025-12-03T22:42:32.302707+00:00", "meta": {"OBJECT_NAME": "ARKTIKA-M 2", "OBJECT_ID": "2023-198A", "EPOCH": "2025-12-03T08:34:19.284960", "MEAN_MOTION": 2.00605176, "ECCENTRICITY": 0.6864251, "INCLINATION": 63.2223, "RA_OF_ASC_NODE": 175.9121, "ARG_OF_PERICENTER": 268.1397, "MEAN_ANOMALY": 18.842, "EPHEMERIS_TYPE": 0, "CLASSIFICATION_TYPE": "U", "NORAD_CAT_ID": 58584, "ELEMENT_SET_NO": 999, "REV_AT_EPOCH": 1439, "BSTAR": 0, "MEAN_MOTION_DOT": 2.24e-06, "MEAN_MOTION_DDOT": 0}, "tle": {"line1": "1 58584U 23198A   25337.35716765  .00000224  00000+0  00000+0 0  9999", "line2": "2 58584  63.2223 175.9121 6864251 268.1397  18.8420  2.00605176 14391"}}, "geometry": {"type": "Point", "coordinates": [-146.78687077690054, 50.22834231991019]}}, {"type": "Feature", "properties": {"norad_id": 58645, "name": "TIANMU-1 11", "group": "weather", "lat": -30.372940590814867, "lon": 2.0707536229815817, "alt_km": 492.734687613146, "timestamp": "2025-12-03T22:42:32.302717+00:00", "meta": {"OBJECT_NAME": "TIANMU-1 11", "OBJECT_ID": "2023-205A", "EPOCH": "2025-12-03T13:23:26.397888", "MEAN_MOTION": 15.24418783, "ECCENTRICITY": 0.0008819, "INCLINATION": 97.3611, "RA_OF_ASC_NODE": 357.3442, "ARG_OF_PERICENTER": 346.362, "MEAN_ANOMALY": 13.7378, "EPHEMERIS_TYPE": 0, "CLASSIFICATION_TYPE": "U", "NORAD_CAT_ID": 58645, "ELEMENT_SET_NO": 999, "REV_AT_EPOCH": 10769, "BSTAR": 0.00034616, "MEAN_MOTION_DOT": 8.43e-05, "MEAN_MOTION_DDOT": 0}, "tle": {"line1": "1 58645U 23205A   25337.55794442  .00008430  00000+0  34616-3 0  9997", "line2": "2 58645  97.3611 357.3442 0008819 346.3620  13.7378 15.24418783107690"}}, "geometry": {"type": "Point", "coordinates": [2.0707536229815817, -30.372940590814867]}}, {"type": "Feature", "properties": {"norad_id": 58646, "name": "TIANMU-1 12", "group": "weather", "lat": -5.014435468759175, "lon": 176.88407734897729, "alt_km": 500.2697340664281, "timestamp": "2025-12-03T22:42:32.302727+00:00", "meta": {"OBJECT_NAME": "TIANMU-1 12", "OBJECT_ID": "2023-205B", "EPOCH": "2025-12-03T12:26:49.379712", "MEAN_MOTION": 15.2433203, "ECCENTRICITY": 0.0006631, "INCLINATION": 97.3599, "RA_OF_ASC_NODE": 357.114, "ARG_OF_PERICENTER": 332.3601, "MEAN_ANOMALY": 27.7283, "EPHEMERIS_TYPE": 0, "CLASSIFICATION_TYPE": "U", "NORAD_CAT_ID": 58646, "ELEMENT_SET_NO": 999, "REV_AT_EPOCH": 10767, "BSTAR": 0.00036561, "MEAN_MOTION_DOT": 8.881e-05, "MEAN_MOTION_DDOT": 0}, "tle": {"line1": "1 58646U 23205B   25337.51862708  .00008881  00000+0  36561-3 0  9996", "line2": "2 58646  97.3599 357.1140 0006631 332.3601  27.7283 15.24332030107671"}}, "geometry": {"type": "Point", "coordinates": [176.88407734897729, -5.014435468759175]}}, {"type": "Feature", "properties": {"norad_id": 58647, "name": "TIANMU-1 13", "group": "weather", "lat": 0.06256079157221901, "lon": -2.2769396312940153, "alt_km": 493.18932689720987, "timestamp": "2025-12-03T22:42:32.302736+00:00", "meta": {"OBJECT_NAME": "TIANMU-1 13", "OBJECT_ID": "2023-205C", "EPOCH": "2025-12-03T13:15:21.375072", "MEAN_MOTION": 15.24338784, "ECCENTRICITY": 0.0006388, "INCLINATION": 97.3627, "RA_OF_ASC_NODE": 357.3442, "ARG_OF_PERICENTER": 308.6666, "MEAN_ANOMALY": 51.4, "EPHEMERIS_TYPE": 0, "CLASSIFICATION_TYPE": "U", "NORAD_CAT_ID": 58647, "ELEMENT_SET_NO": 999, "REV_AT_EPOCH": 10767, "BSTAR": 0.000384, "MEAN_MOTION_DOT": 9.333e-05, "MEAN_MOTION_DDOT": 0}, "tle": {"line1": "1 58647U 23205C   25337.55233073  .00009333  00000+0  38400-3 0  9995", "line2": "2 58647  97.3627 357.3442 0006388 308.6666  51.4000 15.24338784107670"}}, "geometry": {"type": "Point", "coordinates": [-2.2769396312940153, 0.06256079157221901]}}, {"type": "Feature", "properties": {"norad_id": 58648, "name": "TIANMU-1 14", "group": "weather", "lat": 82.43725100207506, "lon": -106.25085360981461, "alt_km": 489.18013450903254, "timestamp": "2025-12-03T22:42:32.302747+00:00", "meta": {"OBJECT_NAME": "TIANMU-1 14", "OBJECT_ID": "2023-205D", "EPOCH": "2025-12-03T12:51:18.546912", "MEAN_MOTION": 15.24323414, "ECCENTRICITY": 0.0007291, "INCLINATION": 97.3559, "RA_OF_ASC_NODE": 356.685, "ARG_OF_PERICENTER": 312.9838, "MEAN_ANOMALY": 47.0788, "EPHEMERIS_TYPE": 0, "CLASSIFICATION_TYPE": "U", "NORAD_CAT_ID": 58648, "ELEMENT_SET_NO": 999, "REV_AT_EPOCH": 10767, "BSTAR": 0.00038682, "MEAN_MOTION_DOT": 9.399e-05, "MEAN_MOTION_DDOT": 0}, "tle": {"line1": "1 58648U 23205D   25337.53563133  .00009399  00000+0  38682-3 0  9991", "line2": "2 58648  97.3559 356.6850 0007291 312.9838  47.0788 15.24323414107671"}}, "geometry": {"type": "Point", "coordinates": [-106.25085360981461, 82.43725100207506]}}, {"type": "Feature", "properties": {"norad_id": 58660, "name": "TIANMU-1 19", "group": "weather", "lat": -61.27977560575367, "lon": -104.79380669395631, "alt_km": 488.44405127245136, "timestamp": "2025-12-03T22:42:32.302756+00:00", "meta": {"OBJECT_NAME": "TIANMU-1 19", "OBJECT_ID": "2023-208A", "EPOCH": "2025-12-03T12:13:08.842368", "MEAN_MOTION": 15.27577668, "ECCENTRICITY": 0.0004083, "INCLINATION": 97.4394, "RA_OF_ASC_NODE": 88.5665, "ARG_OF_PERICENTER": 294.3559, "MEAN_ANOMALY": 65.7253, "EPHEMERIS_TYPE": 0, "CLASSIFICATION_TYPE": "U", "NORAD_CAT_ID": 58660, "ELEMENT_SET_NO": 999, "REV_AT_EPOCH": 10741, "BSTAR": 0.00048021, "MEAN_MOTION_DOT": 0.00012888, "MEAN_MOTION_DDOT": 0}, "tle": {"line1": "1 58660U 23208A   25337.50913012  .00012888  00000+0  48021-3 0  9995", "line2": "2 58660  97.4394  88.5665 0004083 294.3559  65.7253 15.27577668107418"}}, "geometry": {"type": "Point", "coordinates": [-104.79380669395631, -61.27977560575367]}}, {"type": "Feature", "properties": {"norad_id": 58661, "name": "TIANMU-1 20", "group": "weather", "lat": -78.580494721866, "lon": 129.70811862538173, "alt_km": 482.7723049924334, "timestamp": "2025-12-03T22:42:32.302765+00:00", "meta": {"OBJECT_NAME": "TIANMU-1 20", "OBJECT_ID": "2023-208B", "EPOCH": "2025-12-03T12:04:03.264384", "MEAN_MOTION": 15.28770326, "ECCENTRICITY": 0.0006453, "INCLINATION": 97.433, "RA_OF_ASC_NODE": 88.9989, "ARG_OF_PERICENTER": 304.4928, "MEAN_ANOMALY": 55.5702, "EPHEMERIS_TYPE": 0, "CLASSIFICATION_TYPE": "U", "NORAD_CAT_ID": 58661, "ELEMENT_SET_NO": 999, "REV_AT_EPOCH": 10748, "BSTAR": 0.0004568, "MEAN_MOTION_DOT": 0.00012715, "MEAN_MOTION_DDOT": 0}, "tle": {"line1": "1 58661U 23208B   25337.50281556  .00012715  00000+0  45680-3 0  9994", "line2": "2 58661  97.4330  88.9989 0006453 304.4928  55.5702 15.28770326107488"}}, "geometry": {"type": "Point", "coordinates": [129.70811862538173, -78.580494721866]}}]}